{
  "type": "FeatureCollection",
  "name": "Ranipet_SIPCOT_Industrial_Belt",
  "crs": {
    "type": "name",
    "properties": {
      "name": "urn:ogc:def:crs:OGC:1.3:CRS84"
    }
  },
  "features": [
    {
      "type": "Feature",
      "properties": {
        "id": "FAC-01",
        "name": "Ranipet Tannery Consortium - Unit 4B",
        "category": "Tannery",
        "registration_no": "TNPCB/RN/TAN-0491",
        "address": "SIPCOT Phase II, Leather Finishing Zone, Ranipet",
        "emissions": [
          "SO2",
          "H2S",
          "Chromium VI"
        ],
        "prior_violations_count": 3,
        "stack_height_m": 22.0,
        "night_shift_active": true
      },
      "geometry": {
        "type": "Polygon",
        "coordinates": [
          [
            [
              79.324,
              12.9245
            ],
            [
              79.3255,
              12.9245
            ],
            [
              79.3255,
              12.923
            ],
            [
              79.324,
              12.923
            ],
            [
              79.324,
              12.9245
            ]
          ]
        ]
      }
    },
    {
      "type": "Feature",
      "properties": {
        "id": "FAC-02",
        "name": "Tamil Nadu Chromates & Chemicals Ltd (TNCC)",
        "category": "Chemical",
        "registration_no": "TNPCB/RN/CHM-1024",
        "address": "SIPCOT Phase I, Acid Plant Corridor, Ranipet",
        "emissions": [
          "SO2",
          "NO2",
          "Acid Mist"
        ],
        "prior_violations_count": 5,
        "stack_height_m": 35.0,
        "night_shift_active": true
      },
      "geometry": {
        "type": "Polygon",
        "coordinates": [
          [
            [
              79.328,
              12.929
            ],
            [
              79.33,
              12.929
            ],
            [
              79.33,
              12.927
            ],
            [
              79.328,
              12.927
            ],
            [
              79.328,
              12.929
            ]
          ]
        ]
      }
    },
    {
      "type": "Feature",
      "properties": {
        "id": "FAC-03",
        "name": "Palar River Dye Works & Bleaching Unit 2",
        "category": "Textile Dyeing",
        "registration_no": "TNPCB/RN/TEX-0882",
        "address": "Walajapet Road, River Embankment, Ranipet",
        "emissions": [
          "SO2",
          "VOC",
          "Bleach Fumes"
        ],
        "prior_violations_count": 2,
        "stack_height_m": 18.0,
        "night_shift_active": true
      },
      "geometry": {
        "type": "Polygon",
        "coordinates": [
          [
            [
              79.334,
              12.921
            ],
            [
              79.3355,
              12.921
            ],
            [
              79.3355,
              12.9195
            ],
            [
              79.334,
              12.9195
            ],
            [
              79.334,
              12.921
            ]
          ]
        ]
      }
    },
    {
      "type": "Feature",
      "properties": {
        "id": "FAC-04",
        "name": "SIPCOT Precision Electroplating & Galvanizing",
        "category": "Metallurgy",
        "registration_no": "TNPCB/RN/MET-0312",
        "address": "Sector 3B, SIPCOT Industrial Estate, Ranipet",
        "emissions": [
          "Acid Mist",
          "NO2",
          "Heavy Metals"
        ],
        "prior_violations_count": 0,
        "stack_height_m": 20.0,
        "night_shift_active": false
      },
      "geometry": {
        "type": "Polygon",
        "coordinates": [
          [
            [
              79.321,
              12.932
            ],
            [
              79.3225,
              12.932
            ],
            [
              79.3225,
              12.9305
            ],
            [
              79.321,
              12.9305
            ],
            [
              79.321,
              12.932
            ]
          ]
        ]
      }
    },
    {
      "type": "Feature",
      "properties": {
        "id": "FAC-05",
        "name": "Ranipet Bio-Synthetics & Active Solvents",
        "category": "Pharma/Solvent",
        "registration_no": "TNPCB/RN/PHM-0955",
        "address": "Outer Ring Road, Ranipet Bypass",
        "emissions": [
          "VOC",
          "NO2",
          "Solvent Vapors"
        ],
        "prior_violations_count": 1,
        "stack_height_m": 25.0,
        "night_shift_active": true
      },
      "geometry": {
        "type": "Polygon",
        "coordinates": [
          [
            [
              79.339,
              12.934
            ],
            [
              79.341,
              12.934
            ],
            [
              79.341,
              12.9325
            ],
            [
              79.339,
              12.9325
            ],
            [
              79.339,
              12.934
            ]
          ]
        ]
      }
    },
    {
      "type": "Feature",
      "properties": {
        "id": "FAC-06",
        "name": "Vellore Agro Fertilizers & Ammonia Plant",
        "category": "Fertilizer",
        "registration_no": "TNPCB/RN/AGR-0620",
        "address": "Chennai-Bengaluru Highway Junction, Ranipet",
        "emissions": [
          "NH3",
          "NO2",
          "SO2"
        ],
        "prior_violations_count": 1,
        "stack_height_m": 30.0,
        "night_shift_active": true
      },
      "geometry": {
        "type": "Polygon",
        "coordinates": [
          [
            [
              79.317,
              12.926
            ],
            [
              79.319,
              12.926
            ],
            [
              79.319,
              12.924
            ],
            [
              79.317,
              12.924
            ],
            [
              79.317,
              12.926
            ]
          ]
        ]
      }
    }
  ]
}